{"type": "FeatureCollection", "features": [{"type": "Feature", "properties": {"name": "Campus block 1", "building": "university", "placeholder": true}, "geometry": {"type": "Polygon", "coordinates": [[[80.040203, 12.820505], [80.040686, 12.820505], [80.040686, 12.820857], [80.040203, 12.820857], [80.040203, 12.820505]]]}}, {"type": "Feature", "properties": {"name": "Campus block 2", "building": "university", "placeholder": true}, "geometry": {"type": "Polygon", "coordinates": [[[80.042743, 12.820523], [80.043072, 12.820523], [80.043072, 12.820754], [80.042743, 12.820754], [80.042743, 12.820523]]]}}, {"type": "Feature", "properties": {"name": "Campus block 3", "building": "university", "placeholder": true}, "geometry": {"type": "Polygon", "coordinates": [[[80.043901, 12.820337], [80.044301, 12.820337], [80.044301, 12.820696], [80.043901, 12.820696], [80.043901, 12.820337]]]}}, {"type": "Feature", "properties": {"name": "Campus block 4", "building": "university", "placeholder": true}, "geometry": {"type": "Polygon", "coordinates": [[[80.047568, 12.820353], [80.048017, 12.820353], [80.048017, 12.820641], [80.047568, 12.820641], [80.047568, 12.820353]]]}}, {"type": "Feature", "properties": {"name": "Campus block 5", "building": "university", "placeholder": true}, "geometry": {"type": "Polygon", "coordinates": [[[80.043784, 12.821229], [80.044286, 12.821229], [80.044286, 12.821547], [80.043784, 12.821547], [80.043784, 12.821229]]]}}, {"type": "Feature", "properties": {"name": "Campus block 6", "building": "university", "placeholder": true}, "geometry": {"type": "Polygon", "coordinates": [[[80.040346, 12.822258], [80.040601, 12.822258], [80.040601, 12.822653], [80.040346, 12.822653], [80.040346, 12.822258]]]}}, {"type": "Feature", "properties": {"name": "Campus block 7", "building": "university", "placeholder": true}, "geometry": {"type": "Polygon", "coordinates": [[[80.041558, 12.82228], [80.041812, 12.82228], [80.041812, 12.822497], [80.041558, 12.822497], [80.041558, 12.82228]]]}}, {"type": "Feature", "properties": {"name": "Campus block 8", "building": "university", "placeholder": true}, "geometry": {"type": "Polygon", "coordinates": [[[80.042532, 12.822333], [80.04289, 12.822333], [80.04289, 12.822662], [80.042532, 12.822662], [80.042532, 12.822333]]]}}, {"type": "Feature", "properties": {"name": "Campus block 9", "building": "university", "placeholder": true}, "geometry": {"type": "Polygon", "coordinates": [[[80.043894, 12.822237], [80.044383, 12.822237], [80.044383, 12.822453], [80.043894, 12.822453], [80.043894, 12.822237]]]}}, {"type": "Feature", "properties": {"name": "Campus block 10", "building": "university", "placeholder": true}, "geometry": {"type": "Polygon", "coordinates": [[[80.044893, 12.822217], [80.045324, 12.822217], [80.045324, 12.822421], [80.044893, 12.822421], [80.044893, 12.822217]]]}}, {"type": "Feature", "properties": {"name": "Campus block 11", "building": "university", "placeholder": true}, "geometry": {"type": "Polygon", "coordinates": [[[80.046214, 12.822211], [80.046498, 12.822211], [80.046498, 12.822589], [80.046214, 12.822589], [80.046214, 12.822211]]]}}, {"type": "Feature", "properties": {"name": "Campus block 12", "building": "university", "placeholder": true}, "geometry": {"type": "Polygon", "coordinates": [[[80.047364, 12.821984], [80.047806, 12.821984], [80.047806, 12.822238], [80.047364, 12.822238], [80.047364, 12.821984]]]}}, {"type": "Feature", "properties": {"name": "Campus block 13", "building": "university", "placeholder": true}, "geometry": {"type": "Polygon", "coordinates": [[[80.041631, 12.823147], [80.042087, 12.823147], [80.042087, 12.823445], [80.041631, 12.823445], [80.041631, 12.823147]]]}}, {"type": "Feature", "properties": {"name": "Campus block 14", "building": "university", "placeholder": true}, "geometry": {"type": "Polygon", "coordinates": [[[80.043882, 12.822902], [80.044327, 12.822902], [80.044327, 12.82322], [80.043882, 12.82322], [80.043882, 12.822902]]]}}, {"type": "Feature", "properties": {"name": "Campus block 15", "building": "university", "placeholder": true}, "geometry": {"type": "Polygon", "coordinates": [[[80.047591, 12.822846], [80.047955, 12.822846], [80.047955, 12.823203], [80.047591, 12.823203], [80.047591, 12.822846]]]}}, {"type": "Feature", "properties": {"name": "Campus block 16", "building": "university", "placeholder": true}, "geometry": {"type": "Polygon", "coordinates": [[[80.04142, 12.823725], [80.041658, 12.823725], [80.041658, 12.824108], [80.04142, 12.824108], [80.04142, 12.823725]]]}}, {"type": "Feature", "properties": {"name": "Campus block 17", "building": "university", "placeholder": true}, "geometry": {"type": "Polygon", "coordinates": [[[80.042631, 12.823812], [80.043029, 12.823812], [80.043029, 12.824038], [80.042631, 12.824038], [80.042631, 12.823812]]]}}, {"type": "Feature", "properties": {"name": "Campus block 18", "building": "university", "placeholder": true}, "geometry": {"type": "Polygon", "coordinates": [[[80.046266, 12.823804], [80.046753, 12.823804], [80.046753, 12.824194], [80.046266, 12.824194], [80.046266, 12.823804]]]}}, {"type": "Feature", "properties": {"name": "Campus block 19", "building": "university", "placeholder": true}, "geometry": {"type": "Polygon", "coordinates": [[[80.047408, 12.824122], [80.047754, 12.824122], [80.047754, 12.824392], [80.047408, 12.824392], [80.047408, 12.824122]]]}}, {"type": "Feature", "properties": {"name": "Campus block 20", "building": "university", "placeholder": true}, "geometry": {"type": "Polygon", "coordinates": [[[80.040424, 12.824802], [80.040713, 12.824802], [80.040713, 12.825051], [80.040424, 12.825051], [80.040424, 12.824802]]]}}, {"type": "Feature", "properties": {"name": "Campus block 21", "building": "university", "placeholder": true}, "geometry": {"type": "Polygon", "coordinates": [[[80.041607, 12.824717], [80.042015, 12.824717], [80.042015, 12.824981], [80.041607, 12.824981], [80.041607, 12.824717]]]}}, {"type": "Feature", "properties": {"name": "Campus block 22", "building": "university", "placeholder": true}, "geometry": {"type": "Polygon", "coordinates": [[[80.042537, 12.8248], [80.042973, 12.8248], [80.042973, 12.825002], [80.042537, 12.825002], [80.042537, 12.8248]]]}}, {"type": "Feature", "properties": {"name": "Campus block 23", "building": "university", "placeholder": true}, "geometry": {"type": "Polygon", "coordinates": [[[80.046524, 12.824952], [80.046871, 12.824952], [80.046871, 12.825213], [80.046524, 12.825213], [80.046524, 12.824952]]]}}, {"type": "Feature", "properties": {"name": "Campus block 24", "building": "university", "placeholder": true}, "geometry": {"type": "Polygon", "coordinates": [[[80.040315, 12.825686], [80.040652, 12.825686], [80.040652, 12.825984], [80.040315, 12.825984], [80.040315, 12.825686]]]}}, {"type": "Feature", "properties": {"name": "Campus block 25", "building": "university", "placeholder": true}, "geometry": {"type": "Polygon", "coordinates": [[[80.042665, 12.825946], [80.042918, 12.825946], [80.042918, 12.826189], [80.042665, 12.826189], [80.042665, 12.825946]]]}}, {"type": "Feature", "properties": {"name": "Campus block 26", "building": "university", "placeholder": true}, "geometry": {"type": "Polygon", "coordinates": [[[80.043744, 12.825876], [80.044201, 12.825876], [80.044201, 12.826249], [80.043744, 12.826249], [80.043744, 12.825876]]]}}, {"type": "Feature", "properties": {"name": "Campus block 27", "building": "university", "placeholder": true}, "geometry": {"type": "Polygon", "coordinates": [[[80.045289, 12.825822], [80.045668, 12.825822], [80.045668, 12.826119], [80.045289, 12.826119], [80.045289, 12.825822]]]}}, {"type": "Feature", "properties": {"name": "Campus block 28", "building": "university", "placeholder": true}, "geometry": {"type": "Polygon", "coordinates": [[[80.041458, 12.826515], [80.04175, 12.826515], [80.04175, 12.826756], [80.041458, 12.826756], [80.041458, 12.826515]]]}}, {"type": "Feature", "properties": {"name": "Campus block 29", "building": "university", "placeholder": true}, "geometry": {"type": "Polygon", "coordinates": [[[80.042532, 12.826455], [80.042878, 12.826455], [80.042878, 12.826843], [80.042532, 12.826843], [80.042532, 12.826455]]]}}, {"type": "Feature", "properties": {"name": "Campus block 30", "building": "university", "placeholder": true}, "geometry": {"type": "Polygon", "coordinates": [[[80.043672, 12.826649], [80.044162, 12.826649], [80.044162, 12.827049], [80.043672, 12.827049], [80.043672, 12.826649]]]}}, {"type": "Feature", "properties": {"name": "Campus block 31", "building": "university", "placeholder": true}, "geometry": {"type": "Polygon", "coordinates": [[[80.04497, 12.826554], [80.045374, 12.826554], [80.045374, 12.826855], [80.04497, 12.826855], [80.04497, 12.826554]]]}}, {"type": "Feature", "properties": {"name": "Campus block 32", "building": "university", "placeholder": true}, "geometry": {"type": "Polygon", "coordinates": [[[80.046326, 12.826501], [80.046631, 12.826501], [80.046631, 12.826864], [80.046326, 12.826864], [80.046326, 12.826501]]]}}, {"type": "Feature", "properties": {"name": "Campus block 33", "building": "university", "placeholder": true}, "geometry": {"type": "Polygon", "coordinates": [[[80.040542, 12.827561], [80.04084, 12.827561], [80.04084, 12.827843], [80.040542, 12.827843], [80.040542, 12.827561]]]}}, {"type": "Feature", "properties": {"name": "Campus block 34", "building": "university", "placeholder": true}, "geometry": {"type": "Polygon", "coordinates": [[[80.041569, 12.827572], [80.041951, 12.827572], [80.041951, 12.827954], [80.041569, 12.827954], [80.041569, 12.827572]]]}}, {"type": "Feature", "properties": {"name": "Campus block 35", "building": "university", "placeholder": true}, "geometry": {"type": "Polygon", "coordinates": [[[80.043764, 12.827486], [80.044195, 12.827486], [80.044195, 12.827698], [80.043764, 12.827698], [80.043764, 12.827486]]]}}, {"type": "Feature", "properties": {"name": "Campus block 36", "building": "university", "placeholder": true}, "geometry": {"type": "Polygon", "coordinates": [[[80.045376, 12.827735], [80.04561, 12.827735], [80.04561, 12.828057], [80.045376, 12.828057], [80.045376, 12.827735]]]}}, {"type": "Feature", "properties": {"name": "Campus block 37", "building": "university", "placeholder": true}, "geometry": {"type": "Polygon", "coordinates": [[[80.047403, 12.827608], [80.047902, 12.827608], [80.047902, 12.827924], [80.047403, 12.827924], [80.047403, 12.827608]]]}}]}