{"type": "FeatureCollection", "features": [{"type": "Feature", "properties": {"name": "Architecture Park", "leisure": "park", "placeholder": true}, "geometry": {"type": "Polygon", "coordinates": [[[80.044768, 12.824036], [80.044781, 12.824148], [80.044623, 12.824259], [80.044394, 12.824222], [80.044301, 12.824183], [80.044213, 12.824022], [80.044245, 12.823865], [80.044447, 12.823713], [80.044577, 12.823785], [80.044691, 12.823871], [80.044768, 12.824036]]]}}, {"type": "Feature", "properties": {"name": "Bioengineering Park", "leisure": "park", "placeholder": true}, "geometry": {"type": "Polygon", "coordinates": [[[80.044774, 12.825063], [80.044667, 12.825221], [80.044564, 12.82531], [80.044378, 12.825269], [80.044258, 12.82518], [80.044265, 12.825026], [80.044379, 12.824945], [80.044522, 12.824846], [80.044668, 12.824955], [80.044774, 12.825063]]]}}, {"type": "Feature", "properties": {"name": "PF Park", "leisure": "park", "placeholder": true}, "geometry": {"type": "Polygon", "coordinates": [[[80.048015, 12.825652], [80.047948, 12.825764], [80.047757, 12.825928], [80.047627, 12.826034], [80.047401, 12.825979], [80.047276, 12.82577], [80.047216, 12.825599], [80.047138, 12.825366], [80.047327, 12.82516], [80.047543, 12.825158], [80.047886, 12.825198], [80.047951, 12.825379], [80.048015, 12.825652]]]}}, {"type": "Feature", "properties": {"name": "Potheri Forest", "natural": "wood", "placeholder": true}, "geometry": {"type": "Polygon", "coordinates": [[[80.055084, 12.818337], [80.054985, 12.819462], [80.054226, 12.819829], [80.053481, 12.82001], [80.052173, 12.819676], [80.052053, 12.818572], [80.051833, 12.81788], [80.0523, 12.81728], [80.053172, 12.816999], [80.054021, 12.816624], [80.054625, 12.817403], [80.055084, 12.818337]]]}}, {"type": "Feature", "properties": {"name": "Green Pearl Park", "leisure": "park", "placeholder": true}, "geometry": {"type": "Polygon", "coordinates": [[[80.037999, 12.814874], [80.037918, 12.815059], [80.037646, 12.815246], [80.037325, 12.815401], [80.036894, 12.815306], [80.03684, 12.814929], [80.036907, 12.814699], [80.036931, 12.814369], [80.037205, 12.814156], [80.03758, 12.814288], [80.037878, 12.814423], [80.037999, 12.814874]]]}}, {"type": "Feature", "properties": {"name": "VGN Southern Avenue Park", "leisure": "park", "placeholder": true}, "geometry": {"type": "Polygon", "coordinates": [[[80.028871, 12.819311], [80.028707, 12.819562], [80.028543, 12.819749], [80.028375, 12.819846], [80.027983, 12.819748], [80.02788, 12.819491], [80.027893, 12.819312], [80.027963, 12.819091], [80.02804, 12.818967], [80.028254, 12.818858], [80.028447, 12.818949], [80.028629, 12.819065], [80.028871, 12.819311]]]}}]}