{"type": "FeatureCollection", "features": [{"type": "Feature", "properties": {"name": "GST Road (placeholder)", "highway": "trunk", "placeholder": true}, "geometry": {"type": "LineString", "coordinates": [[80.025, 12.808], [80.033, 12.816], [80.0395, 12.823], [80.046, 12.831], [80.052, 12.8345]]}}, {"type": "Feature", "properties": {"name": "Campus Main Road", "highway": "secondary", "placeholder": true}, "geometry": {"type": "LineString", "coordinates": [[80.0395, 12.823], [80.045, 12.8215], [80.051, 12.821], [80.06, 12.82]]}}, {"type": "Feature", "properties": {"name": "Potheri Link Road", "highway": "tertiary", "placeholder": true}, "geometry": {"type": "LineString", "coordinates": [[80.043, 12.812], [80.044, 12.82], [80.0455, 12.829]]}}, {"type": "Feature", "properties": {"name": "VGN Avenue", "highway": "residential", "placeholder": true}, "geometry": {"type": "LineString", "coordinates": [[80.026, 12.82], [80.033, 12.8195], [80.0395, 12.823]]}}, {"type": "Feature", "properties": {"name": "Southern Street", "highway": "residential", "placeholder": true}, "geometry": {"type": "LineString", "coordinates": [[80.034, 12.812], [80.04, 12.815], [80.05, 12.815], [80.056, 12.813]]}}]}