{"type": "FeatureCollection", "features": [{"type": "Feature", "properties": {"name": "Potheri Pond", "natural": "water", "placeholder": true}, "geometry": {"type": "Polygon", "coordinates": [[[80.042334, 12.819018], [80.042326, 12.81931], [80.042006, 12.819721], [80.041584, 12.81959], [80.041328, 12.819427], [80.041167, 12.81891], [80.041335, 12.818706], [80.041632, 12.818326], [80.04201, 12.81835], [80.042262, 12.818674], [80.042334, 12.819018]]]}}, {"type": "Feature", "properties": {"name": "Drainage channel", "waterway": "canal", "placeholder": true}, "geometry": {"type": "LineString", "coordinates": [[80.03, 12.811], [80.036, 12.8135], [80.0418, 12.8182]]}}]}